NORAD_CAT_ID,OBJECT_NAME,OBJECT_TYPE,EPOCH,MEAN_MOTION,ECCENTRICITY,INCLINATION,RA_OF_ASC_NODE,ARG_OF_PERICENTER,MEAN_ANOMALY,BSTAR,MEAN_MOTION_DOT,MEAN_MOTION_DDOT,TLE_LINE0,TLE_LINE1,TLE_LINE2,SEMIMAJOR_AXIS,PERIOD,APOGEE,PERIGEE,DECAYED
54081.0,STARLINK-5165,PAYLOAD,2024-05-30 23:40:42,15.08844236,0.0001508,53.2189,1.7242,72.6805,287.4352,0.0003729,5.652e-05,0.0,0 STARLINK-5165,1 54081U 22136AG  24151.98660052  .00005652  00000-0  37290-3 0  9993,2 54081  53.2189   1.7242 0001508  72.6805 287.4352 15.08844236 89207,6917.867,95.437,540.776,538.689,0.0
54081.0,STARLINK-5165,PAYLOAD,2024-05-31 20:20:43,15.08839793,0.0001289,53.2182,357.8586,93.3812,266.7327,6.1619e-05,6.93e-06,0.0,0 STARLINK-5165,1 54081U 22136AG  24152.84772184  .00000693  00000-0  61619-4 0  9992,2 54081  53.2182 357.8586 0001289  93.3812 266.7327 15.08839793 89811,6917.881,95.438,540.638,538.854,0.0
54081.0,STARLINK-5165,PAYLOAD,2024-06-02 05:43:49,15.08838813,0.000121,53.2177,351.6156,89.2503,270.8628,3.7019e-05,3.01e-06,0.0,0 STARLINK-5165,1 54081U 22136AG  24154.23876494  .00000301  00000-0  37019-4 0  9999,2 54081  53.2177 351.6156 0001210  89.2503 270.8628 15.08838813 90022,6917.884,95.438,540.586,538.912,0.0
54081.0,STARLINK-5165,PAYLOAD,2024-06-03 05:34:36,15.0884303,0.0001131,53.2167,347.1545,88.1833,271.9289,0.00016082,2.273e-05,0.0,0 STARLINK-5165,1 54081U 22136AG  24155.23236434  .00002273  00000-0  16082-3 0  9990,2 54081  53.2167 347.1545 0001131  88.1833 271.9289 15.08843030 89692,6917.871,95.437,540.519,538.954,0.0
54081.0,STARLINK-5165,PAYLOAD,2024-06-03 19:53:04,15.08844807,0.000123,53.2181,344.4771,86.4648,273.6485,0.00014338,1.995e-05,0.0,0 STARLINK-5165,1 54081U 22136AG  24155.82852331  .00001995  00000-0  14338-3 0  9997,2 54081  53.2181 344.4771 0001230  86.4648 273.6485 15.08844807 90269,6917.866,95.437,540.582,538.88,0.0
54081.0,STARLINK-5165,PAYLOAD,2024-06-03 23:03:51,15.08832666,0.0001353,53.2179,343.882,84.6043,275.5104,0.00054965,8.469e-05,0.0,0 STARLINK-5165,1 54081U 22136AG  24155.96101064  .00008469  00000-0  54965-3 0  9995,2 54081  53.2179 343.8820 0001353  84.6043 275.5104 15.08832666 90280,6917.903,95.438,540.704,538.832,0.0
54081.0,STARLINK-5165,PAYLOAD,2024-06-04 05:25:23,15.08837716,0.0001544,53.2179,342.6926,81.5058,278.6109,2.5882e-05,1.24e-06,0.0,0 STARLINK-5165,1 54081U 22136AG  24156.22596733  .00000124  00000-0  25882-4 0  9993,2 54081  53.2179 342.6926 0001544  81.5058 278.6109 15.08837716 89848,6917.887,95.438,540.82,538.684,0.0
54081.0,STARLINK-5165,PAYLOAD,2024-06-04 21:19:14,15.08846387,0.0002232,53.2231,339.7154,73.9757,286.1481,3.1642e-05,2.15e-06,0.0,0 STARLINK-5165,1 54081U 22136AG  24156.88836664  .00000215  00000-0  31642-4 0  9997,2 54081  53.2231 339.7154 0002232  73.9757 286.1481 15.08846387 89945,6917.861,95.437,541.27,538.182,0.0
54081.0,STARLINK-5165,PAYLOAD,2024-06-05 05:16:10,15.08848779,0.0001374,53.2142,338.2303,68.5304,291.5835,-0.00013424,-2.424e-05,0.0,0 STARLINK-5165,1 54081U 22136AG  24157.21956165 -.00002424  00000-0 -13424-3 0  9997,2 54081  53.2142 338.2303 0001374  68.5304 291.5835 15.08848779 90470,6917.854,95.437,540.669,538.768,0.0
54081.0,STARLINK-5165,PAYLOAD,2024-06-05 21:10:02,15.08836527,0.0001641,53.2219,335.2586,71.8859,288.2312,0.00011687,1.572e-05,0.0,0 STARLINK-5165,1 54081U 22136AG  24157.88197153  .00001572  00000-0  11687-3 0  9994,2 54081  53.2219 335.2586 0001641  71.8859 288.2312 15.08836527 90576,6917.891,95.438,540.891,538.621,0.0
54081.0,STARLINK-5165,PAYLOAD,2024-06-06 05:06:57,15.08837859,0.0001502,53.214,333.7697,85.7181,274.3983,0.00011605,1.559e-05,0.0,0 STARLINK-5165,1 54081U 22136AG  24158.21317127  .00001559  00000-0  11605-3 0  9992,2 54081  53.2140 333.7697 0001502  85.7181 274.3983 15.08837859 90145,6917.887,95.438,540.791,538.713,0.0
54081.0,STARLINK-5165,PAYLOAD,2024-06-06 17:50:02,15.0884692,0.000128,53.2064,331.3911,86.1506,273.9632,0.00024356,3.591e-05,0.0,0 STARLINK-5165,1 54081U 22136AG  24158.74308642  .00003591  00000-0  24356-3 0  9997,2 54081  53.2064 331.3911 0001280  86.1506 273.9632 15.08846920 90709,6917.859,95.437,540.61,538.839,0.0
54081.0,STARLINK-5165,PAYLOAD,2024-06-07 17:40:50,15.08839587,4.18e-05,53.2161,326.931,83.3324,276.7716,0.00021584,3.149e-05,0.0,0 STARLINK-5165,1 54081U 22136AG  24159.73669158  .00003149  00000-0  21584-3 0  9998,2 54081  53.2161 326.9310 0000418  83.3324 276.7716 15.08839587 90850,6917.882,95.438,540.036,539.457,0.0
54081.0,STARLINK-5165,PAYLOAD,2024-06-08 04:48:31,15.08853411,0.0001106,53.2221,324.85,108.4525,251.6587,-0.00010751,-1.999e-05,0.0,0 STARLINK-5165,1 54081U 22136AG  24160.20036279 -.00001999  00000-0 -10751-3 0  9991,2 54081  53.2221 324.8500 0001106 108.4525 251.6587 15.08853411 90920,6917.839,95.437,540.47,538.939,0.0
54081.0,STARLINK-5165,PAYLOAD,2024-06-08 11:10:04,15.0884591,0.0001377,53.22,323.6608,97.9741,262.1407,0.00017719,2.534e-05,0.0,0 STARLINK-5165,1 54081U 22136AG  24160.46532896  .00002534  00000-0  17719-3 0  9990,2 54081  53.2200 323.6608 0001377  97.9741 262.1407 15.08845910 90489,6917.862,95.437,540.68,538.775,0.0
54081.0,STARLINK-5165,PAYLOAD,2024-06-08 19:06:59,15.08853818,0.0001554,53.2188,322.1742,98.6618,261.455,0.00031635,4.752e-05,0.0,0 STARLINK-5165,1 54081U 22136AG  24160.79652339  .00004752  00000-0  31635-3 0  9998,2 54081  53.2188 322.1742 0001554  98.6618 261.4550 15.08853818 90538,6917.838,95.437,540.778,538.628,0.0
54081.0,STARLINK-5165,PAYLOAD,2024-06-09 11:00:51,15.08835486,0.0001843,53.2162,319.202,94.283,265.8373,3.536e-05,2.75e-06,0.0,0 STARLINK-5165,1 54081U 22136AG  24161.45893492  .00000275  00000-0  35360-4 0  9995,2 54081  53.2162 319.2020 0001843  94.2830 265.8373 15.08835486 91112,6917.894,95.438,541.034,538.484,0.0
54081.0,STARLINK-5165,PAYLOAD,2024-06-09 20:33:11,15.08834627,0.0001477,53.2171,317.4188,82.9594,277.1567,3.074e-05,2.01e-06,0.0,0 STARLINK-5165,1 54081U 22136AG  24161.85637740  .00000201  00000-0  30740-4 0  9997,2 54081  53.2171 317.4188 0001477  82.9594 277.1567 15.08834627 90690,6917.897,95.438,540.784,538.74,0.0
54081.0,STARLINK-5165,PAYLOAD,2024-06-10 14:02:25,15.08840778,0.0001196,53.2177,314.1466,81.9209,278.1919,0.000154,2.164e-05,0.0,0 STARLINK-5165,1 54081U 22136AG  24162.58501514  .00002164  00000-0  15400-3 0  9992,2 54081  53.2177 314.1466 0001196  81.9209 278.1919 15.08840778 90808,6917.878,95.438,540.57,538.916,0.0
54081.0,STARLINK-5165,PAYLOAD,2024-06-10 17:13:11,15.08847513,0.0001339,53.2185,313.5547,81.5829,278.5315,0.00026774,3.977e-05,0.0,0 STARLINK-5165,1 54081U 22136AG  24162.71749357  .00003977  00000-0  26774-3 0  9995,2 54081  53.2185 313.5547 0001339  81.5829 278.5315 15.08847513 91307,6917.857,95.437,540.649,538.796,0.0
54081.0,STARLINK-5165,PAYLOAD,2024-06-11 13:53:12,15.08840573,0.000121,53.2166,309.6883,78.9846,281.1282,0.00013659,1.887e-05,0.0,0 STARLINK-5165,1 54081U 22136AG  24163.57861571  .00001887  00000-0  13659-3 0  9999,2 54081  53.2166 309.6883 0001210  78.9846 281.1282 15.08840573 90954,6917.879,95.438,540.581,538.907,0.0
54081.0,STARLINK-5165,PAYLOAD,2024-06-11 17:03:58,15.08844924,0.0001485,53.2179,309.0969,96.2405,263.8756,0.00023077,3.387e-05,0.0,0 STARLINK-5165,1 54081U 22136AG  24163.71109420  .00003387  00000-0  23077-3 0  9995,2 54081  53.2179 309.0969 0001485  96.2405 263.8756 15.08844924 91458,6917.865,95.437,540.758,538.703,0.0
54081.0,STARLINK-5165,PAYLOAD,2024-06-12 16:54:46,15.0883621,0.0001092,53.2182,304.6331,84.8598,275.2518,-8.6716e-05,-1.667e-05,0.0,0 STARLINK-5165,1 54081U 22136AG  24164.70469979 -.00001667  00000-0 -86716-4 0  9994,2 54081  53.2182 304.6331 0001092  84.8598 275.2518 15.08836210 91605,6917.892,95.438,540.512,539.002,0.0
54081.0,STARLINK-5165,PAYLOAD,2024-06-13 13:34:46,15.08845039,0.0001081,53.2177,300.7655,91.8963,268.2153,0.00016358,2.317e-05,0.0,0 STARLINK-5165,1 54081U 22136AG  24165.56581635  .00002317  00000-0  16358-3 0  9998,2 54081  53.2177 300.7655 0001081  91.8963 268.2153 15.08845039 91737,6917.865,95.437,540.478,538.982,0.0
54081.0,STARLINK-5165,PAYLOAD,2024-06-13 15:10:09,15.08846009,9.75e-05,53.218,300.469,100.4856,259.6246,0.00020297,2.944e-05,0.0,0 STARLINK-5165,1 54081U 22136AG  24165.63205564  .00002944  00000-0  20297-3 0  9993,2 54081  53.2180 300.4690 0000975 100.4856 259.6246 15.08846009 91269,6917.862,95.437,540.402,539.053,0.0
54081.0,STARLINK-5165,PAYLOAD,2024-06-13 18:20:55,15.08855329,0.0001012,53.2168,299.874,96.4523,263.6585,0.00039308,5.976e-05,0.0,0 STARLINK-5165,1 54081U 22136AG  24165.76453264  .00005976  00000-0  39308-3 0  9990,2 54081  53.2168 299.8740 0001012  96.4523 263.6585 15.08855329 91288,6917.834,95.437,540.399,538.998,0.0
54081.0,STARLINK-5165,PAYLOAD,2024-06-14 15:00:57,15.08838745,0.0001058,53.2167,296.0053,97.744,262.3672,9.1911e-05,1.175e-05,0.0,0 STARLINK-5165,1 54081U 22136AG  24166.62566059  .00001175  00000-0  91911-4 0  9999,2 54081  53.2167 296.0053 0001058  97.7440 262.3672 15.08838745 91416,6917.884,95.438,540.481,539.017,0.0
54081.0,STARLINK-5165,PAYLOAD,2024-06-14 18:11:43,15.08840363,0.0001093,53.2173,295.4096,102.0357,258.0757,0.00012338,1.676e-05,0.0,0 STARLINK-5165,1 54081U 22136AG  24166.75814027  .00001676  00000-0  12338-3 0  9995,2 54081  53.2173 295.4096 0001093 102.0357 258.0757 15.08840363 91436,6917.879,95.438,540.5,538.988,0.0
54081.0,STARLINK-5165,PAYLOAD,2024-06-15 14:51:43,15.08855274,0.0001146,53.2171,291.547,82.2147,277.8976,0.0004362,6.664e-05,0.0,0 STARLINK-5165,1 54081U 22136AG  24167.61925543  .00006664  00000-0  43620-3 0  9997,2 54081  53.2171 291.5470 0001146  82.2147 277.8976 15.08855274 91565,6917.834,95.437,540.491,538.906,0.0
54081.0,STARLINK-5165,PAYLOAD,2024-06-16 14:42:30,15.08846145,0.0001096,53.2163,287.0866,78.6243,281.4873,0.00017961,2.572e-05,0.0,0 STARLINK-5165,1 54081U 22136AG  24168.61285556  .00002572  00000-0  17961-3 0  9994,2 54081  53.2163 287.0866 0001096  78.6243 281.4873 15.08846145 91716,6917.862,95.437,540.485,538.968,0.0
